[
  {
    "address": "5707 W. 25th Ave.",
    "city": "Edgewater",
    "lat": 39.7530326,
    "lng": -105.059621,
    "officeNumber": "N/A",
    "state": "CO",
    "zipCode": "80214"
  },
  {
    "address": "7233 E Colfax Ave.",
    "city": "Denver",
    "lat": 39.7404951,
    "lng": -104.9043035,
    "officeNumber": "N/A",
    "state": "CO",
    "zipCode": "80220"
  },
  {
    "address": "1200 S. College Ave. Suite 212",
    "city": "Fort Collins",
    "lat": 40.5716714,
    "lng": -105.0766516,
    "officeNumber": "N/A",
    "state": "CO",
    "zipCode": "80524"
  },
  {
    "address": "465 Congress Street - Mezzanine Level",
    "city": "Portland",
    "lat": 43.6629964,
    "lng": -70.2568775,
    "notes": "HQ",
    "officeNumber": "N/A",
    "state": "ME",
    "zipCode": "04101"
  },
  {
    "address": "The Wright Building, 2233 University Ave. South, Suite 426",
    "city": "St. Paul",
    "lat": 44.96252399999999,
    "lng": -93.19194429999999,
    "notes": "HQ",
    "officeNumber": "651-330-0560",
    "state": "MN",
    "zipCode": "55114"
  },
  {
    "address": "The Daniel Building, 11 7th Ave. North",
    "city": "St. Cloud",
    "lat": 45.5604693,
    "lng": -94.16116730000002,
    "officeNumber": "320-774-2427",
    "state": "MN",
    "zipCode": "56303"
  },
  {
    "address": "7760 France Avenue South, 11th Floor",
    "city": "Bloomington",
    "lat": 44.8611076,
    "lng": -93.331236,
    "officeNumber": "952-886-7310",
    "state": "MN",
    "zipCode": "55435"
  },
  {
    "address": "2130 South Broadway",
    "city": "Rochester",
    "lat": 43.990723,
    "lng": -92.461246,
    "officeNumber": "507-258-7747",
    "state": "MN",
    "zipCode": "55904"
  },
  {
    "address": "2952 Chain Bridge Rd., Suite H",
    "city": "Oakton",
    "lat": 38.881246,
    "lng": -77.3029352,
    "notes": "HQ",
    "officeNumber": "N/A",
    "state": "VA",
    "zipCode": "22124"
  },
  {
    "address": "721 W. 2nd Street",
    "city": "Little Rock",
    "lat": 34.748019,
    "lng": -92.278702,
    "notes": "HQ",
    "officeNumber": "N/A",
    "state": "AR",
    "zipCode": "72201"
  },
  {
    "address": "1813 4th Ave. North",
    "city": "Birmingham",
    "lat": 33.5160234,
    "lng": -86.80972840000001,
    "notes": "HQ",
    "officeNumber": "N/A",
    "state": "AL",
    "zipCode": "35203"
  },
  {
    "address": "256 Park Ave. ",
    "city": "Worcester",
    "lat": 42.2647653,
    "lng": -71.8194923,
    "officeNumber": "508-341-4876",
    "state": "MA",
    "zipCode": "01609"
  },
  {
    "address": "89 Cambridge St.",
    "city": "Charlestown",
    "lat": 42.382785,
    "lng": -71.07824099999999,
    "officeNumber": "617-433-8683",
    "state": "MA",
    "zipCode": "02129"
  },
  {
    "address": "1408 South Denver Ave. ",
    "city": "Tulsa ",
    "lat": 36.1420817,
    "lng": -95.99240979999999,
    "notes": "HQ",
    "officeNumber": "N/A",
    "state": "OK",
    "zipCode": "74119"
  },
  {
    "address": "106 South 12th St.",
    "city": "Edinburg",
    "lat": 26.3009939,
    "lng": -98.1611101,
    "officeNumber": "N/A",
    "state": "TX",
    "zipCode": "78539"
  },
  {
    "address": "3000 Interstate 10 Frontage Rd",
    "city": "San Antonio",
    "lat": 29.4569112,
    "lng": -98.5162392,
    "officeNumber": "N/A",
    "state": "TX",
    "zipCode": "78201"
  },
  {
    "address": "1629 Bonnie Brae St.",
    "city": "Houston",
    "lat": 29.733293,
    "lng": -95.400869,
    "officeNumber": "832-791-2376",
    "state": "TX",
    "zipCode": "77006"
  },
  {
    "address": "1309 E. 7th Street",
    "city": "Austin",
    "lat": 30.2645784,
    "lng": -97.7284523,
    "officeNumber": "512-769-2513",
    "state": "TX",
    "zipCode": "78702"
  },
  {
    "address": "1408 N. Washington Ave.",
    "city": "Dallas",
    "lat": 32.7960923,
    "lng": -96.7832786,
    "officeNumber": "469-708-2376",
    "state": "TX",
    "zipCode": "78204"
  },
  {
    "address": "1301 E. Washington St. ",
    "city": "Phoenix",
    "lat": 33.4479479,
    "lng": -112.0539359,
    "officeNumber": "602-354-5179",
    "state": "AZ",
    "zipCode": "85034"
  },
  {
    "address": "8090 S. Durango Dr.",
    "city": "Las Vegas",
    "lat": 36.0420675,
    "lng": -115.2781237,
    "officeNumber": "N/A",
    "state": "NV",
    "zipCode": "89113"
  },
  {
    "address": "170 N. Boulder Highway",
    "city": "Henderson",
    "lat": 36.0414624,
    "lng": -114.9808231,
    "officeNumber": "N/A",
    "state": "NV",
    "zipCode": "89015"
  },
  {
    "address": "4400 S. Maryland Parkway",
    "city": "Las Vegas",
    "lat": 36.1099286,
    "lng": -115.1374317,
    "notes": "UNLV",
    "officeNumber": "N/A",
    "state": "NV",
    "zipCode": "89119"
  },
  {
    "address": "1051 N Eastern Ave.",
    "city": "Las Vegas",
    "lat": 36.1828325,
    "lng": -115.1164063,
    "officeNumber": "N/A",
    "state": "NV",
    "zipCode": "89101"
  },
  {
    "address": "815 S. Rainbow Blvd.",
    "city": "Las Vegas",
    "lat": 36.16376,
    "lng": -115.2457513,
    "officeNumber": "702-902-0324",
    "state": "NV",
    "zipCode": "89145"
  },
  {
    "address": "3073 W. Craig Rd.",
    "city": "Las Vegas",
    "lat": 36.2380395,
    "lng": -115.181645,
    "officeNumber": "N/A",
    "state": "NV",
    "zipCode": "89032"
  },
  {
    "address": "140 E. Main Street",
    "city": "Fernley",
    "lat": 39.607719,
    "lng": -119.2523375,
    "officeNumber": "N/A",
    "state": "NV",
    "zipCode": "89403"
  },
  {
    "address": "1155 West 4th St.",
    "city": "Reno",
    "lat": 39.526413,
    "lng": -119.8291443,
    "officeNumber": "N/A",
    "state": "NV",
    "zipCode": "89503"
  },
  {
    "address": "104 Corbett St.",
    "city": "Carson City",
    "lat": 39.172166,
    "lng": -119.7662113,
    "officeNumber": "N/A",
    "state": "NV",
    "zipCode": "89706"
  },
  {
    "address": "177 Main Street",
    "city": "Berlin",
    "lat": 44.4702151,
    "lng": -71.1800434,
    "officeLead": "Colin O'Neil",
    "officeNumber": "603-935-9084",
    "phone": "603-851-4465",
    "state": "NH",
    "zipCode": "03570"
  },
  {
    "address": "16 Mill Street, Floor 3",
    "city": "Littleton ",
    "lat": 44.30602710000001,
    "lng": -71.7712987,
    "officeLead": "Kevin Lata",
    "officeNumber": "603-577-0833",
    "phone": "603-577-0833",
    "state": "NH",
    "zipCode": "03561"
  },
  {
    "address": "62 Canal Street",
    "city": "Laconia",
    "lat": 43.529185,
    "lng": -71.46957320000001,
    "officeLead": "Julia Ackerly",
    "officeNumber": "603-931-3003",
    "phone": "603-851-5993",
    "state": "NH",
    "zipCode": "03246"
  },
  {
    "address": "1529 White Mountain Highway, Unit 2",
    "city": "North Conway",
    "lat": 44.02098429999999,
    "lng": -71.1157137,
    "officeLead": "Henney Sullivan",
    "officeNumber": "603-931-3003",
    "phone": "603-730-7183",
    "state": "NH",
    "zipCode": "03860"
  },
  {
    "address": "117 Manchester Street, Suite 5",
    "city": "Concord",
    "lat": 43.190093,
    "lng": -71.5062669,
    "officeLead": "Paul Fellows",
    "officeNumber": "603-935-9084",
    "phone": "978-207-9979",
    "state": "NH",
    "zipCode": "03301"
  },
  {
    "address": "135 Main Street",
    "city": "Plymouth ",
    "lat": 43.7594942,
    "lng": -71.6871216,
    "officeLead": "Harrison Weber",
    "officeNumber": "603-931-3003",
    "phone": "603-851-5420",
    "state": "NH",
    "zipCode": "03264"
  },
  {
    "address": "235 West Road, Suite 11 ",
    "city": "Portsmouth",
    "lat": 43.0411037,
    "lng": -70.7781674,
    "officeLead": "Jake Roche",
    "officeNumber": "603-427-8900",
    "phone": "603-380-3825",
    "state": "NH",
    "zipCode": "03801"
  },
  {
    "address": "861 Lafayette Road (Route 1), Unit 7",
    "city": "Hampton",
    "lat": 42.93759319999999,
    "lng": -70.83892190000002,
    "officeLead": "Melanie Fenzel",
    "officeNumber": "603-931-3003",
    "phone": "603-851-4014",
    "state": "NH",
    "zipCode": "03842"
  },
  {
    "address": "56 North Main Street",
    "city": "Rochester",
    "lat": 43.30450310000001,
    "lng": -70.9777126,
    "officeLead": "Tim Pham",
    "officeNumber": "603-931-3003",
    "phone": "603-854-1483",
    "state": "NH",
    "zipCode": "03867"
  },
  {
    "address": "104 Washington Street",
    "city": "Dover",
    "lat": 43.194804,
    "lng": -70.8755357,
    "officeLead": "Alex Brill",
    "officeNumber": "603-842-4748",
    "phone": "603-851-2165",
    "state": "NH",
    "zipCode": "03820"
  },
  {
    "address": "835 Hanover Street, Suites 201, 204, 305, 301",
    "city": "Manchester",
    "lat": 43.00885590000001,
    "lng": -71.4477469,
    "notes": "HQ",
    "officeNumber": "603-935-9084",
    "state": "NH",
    "zipCode": "03104"
  },
  {
    "address": "645 Cilley Road",
    "city": "Manchester",
    "lat": 42.9734576,
    "lng": -71.4403711,
    "officeLead": "Hugo Palma",
    "officeNumber": "603-931-3003",
    "phone": "603-722-4395",
    "state": "NH",
    "zipCode": "03103"
  },
  {
    "address": "381 Main Street",
    "city": "Nashua",
    "lat": 42.7440446,
    "lng": -71.459358,
    "officeLead": "Whitney Horton",
    "officeNumber": "603-935-9084",
    "phone": "603-851-8192",
    "state": "NH",
    "zipCode": "03060"
  },
  {
    "address": "254 North Broadway",
    "city": "Salem ",
    "lat": 42.7936967,
    "lng": -71.2352879,
    "officeLead": "Whitney Horton",
    "officeNumber": "603-851-3576",
    "phone": "603-851-8192",
    "state": "NH",
    "zipCode": "03079"
  },
  {
    "address": "89 Main Street, Unit 2, Building 2",
    "city": "West Lebanon",
    "lat": 43.6485516,
    "lng": -72.3103484,
    "officeLead": "Nat Ruby",
    "officeNumber": "603-851-3218",
    "phone": "603-851-3218",
    "state": "NH",
    "zipCode": "03784"
  },
  {
    "address": "44 Opera House Square",
    "city": "Claremont",
    "lat": 43.3727428,
    "lng": -72.3381069,
    "officeLead": "Lindsay Hunn",
    "officeNumber": "603-935-9084",
    "phone": "603-851-2927",
    "state": "NH",
    "zipCode": "03743"
  },
  {
    "address": "20 Central Square, Unit 202",
    "city": "Keene ",
    "lat": 42.9346345,
    "lng": -72.278188,
    "officeLead": "Megan Harris",
    "officeNumber": "603-935-9084",
    "phone": "603-851-2546",
    "state": "NH",
    "zipCode": "03431"
  },
  {
    "address": "50 Jaffrey Road (Route 202)",
    "city": "Peterborough",
    "lat": 42.8872991,
    "lng": -71.9461457,
    "officeLead": "Kyle Aldrich",
    "officeNumber": "603-931-3003",
    "phone": "603-851-3512",
    "state": "NH",
    "zipCode": "03458"
  }
]